SOYUZ-MS 28             
1 66664U 25275A   26003.79081789  .00013445  00000+0  25095-3 0  9999
2 66664  51.6327  33.2893 0007553 337.0786  22.9864 15.49074434  1289
1998-067XS              
1 66906U 98067XS  26003.56914344  .00032069  00000+0  53068-3 0  9998
2 66906  51.6318  34.0602 0002449 317.8202  42.2599 15.51896451  5001
1998-067XT              
1 66907U 98067XT  26003.34970210  .00110395  00000+0  16211-2 0  9996
2 66907  51.6314  34.8450 0003917 359.2248   0.8736 15.54636251  4979
1998-067XU              
1 66908U 98067XU  26003.79859273  .00098560  00000+0  14470-2 0  9995
2 66908  51.6308  32.5923 0003913 358.8486   1.2495 15.54697999  5040
SILVERSAT               
1 66909U 98067XV  26003.79444845  .00104485  00000+0  15033-2 0  9991
2 66909  51.6310  32.5651 0004051   7.0388 353.0659 15.55220356  5040
1998-067XW              
1 66910U 98067XW  26003.79377596  .00097439  00000+0  14161-2 0  9992
2 66910  51.6304  32.5594 0003207 339.7349  20.3515 15.54983306  5040
1998-067XX              
1 66911U 98067XX  26003.78566604  .00112445  00000+0  15793-2 0  9999
2 66911  51.6312  32.5061 0003101 353.9080   6.1874 15.55843233  5036
1998-067XY              
1 66912U 98067XY  26003.29494123  .00085142  00000+0  13036-2 0  9993
2 66912  51.6316  35.2295 0003743 346.2968  13.7920 15.53613153  4952
