CCSDS_OMM_VERS = 2.0
CREATION_DATE  = 
ORIGINATOR     = 

OBJECT_NAME    = SOYUZ-MS 28
OBJECT_ID      = 2025-275A
CENTER_NAME    = EARTH
REF_FRAME      = TEME
TIME_SYSTEM    = UTC
MEAN_ELEMENT_THEORY = SGP/SGP4

EPOCH          = 2026-01-03T18:58:46.665696
MEAN_MOTION    = 15.49074434
ECCENTRICITY   = .00075535
INCLINATION    = 51.6327
RA_OF_ASC_NODE = 33.2893
ARG_OF_PERICENTER = 337.0786
MEAN_ANOMALY   = 22.9864

EPHEMERIS_TYPE = 0
CLASSIFICATION_TYPE = U
NORAD_CAT_ID   = 66664
ELEMENT_SET_NO = 999
REV_AT_EPOCH   = 128
BSTAR          = .25095454E-3
MEAN_MOTION_DOT = .13445E-3
MEAN_MOTION_DDOT = 0

CCSDS_OMM_VERS = 2.0
CREATION_DATE  = 
ORIGINATOR     = 

OBJECT_NAME    = 1998-067XS
OBJECT_ID      = 1998-067XS
CENTER_NAME    = EARTH
REF_FRAME      = TEME
TIME_SYSTEM    = UTC
MEAN_ELEMENT_THEORY = SGP/SGP4

EPOCH          = 2026-01-03T13:39:33.993216
MEAN_MOTION    = 15.51896451
ECCENTRICITY   = .00024495
INCLINATION    = 51.6318
RA_OF_ASC_NODE = 34.0602
ARG_OF_PERICENTER = 317.8202
MEAN_ANOMALY   = 42.2599

EPHEMERIS_TYPE = 0
CLASSIFICATION_TYPE = U
NORAD_CAT_ID   = 66906
ELEMENT_SET_NO = 999
REV_AT_EPOCH   = 500
BSTAR          = .53068036E-3
MEAN_MOTION_DOT = .32069E-3
MEAN_MOTION_DDOT = 0

CCSDS_OMM_VERS = 2.0
CREATION_DATE  = 
ORIGINATOR     = 

OBJECT_NAME    = 1998-067XT
OBJECT_ID      = 1998-067XT
CENTER_NAME    = EARTH
REF_FRAME      = TEME
TIME_SYSTEM    = UTC
MEAN_ELEMENT_THEORY = SGP/SGP4

EPOCH          = 2026-01-03T08:23:34.261440
MEAN_MOTION    = 15.54636251
ECCENTRICITY   = .00039175
INCLINATION    = 51.6314
RA_OF_ASC_NODE = 34.8450
ARG_OF_PERICENTER = 359.2248
MEAN_ANOMALY   = 0.8736

EPHEMERIS_TYPE = 0
CLASSIFICATION_TYPE = U
NORAD_CAT_ID   = 66907
ELEMENT_SET_NO = 999
REV_AT_EPOCH   = 497
BSTAR          = .16211481E-2
MEAN_MOTION_DOT = .110395E-2
MEAN_MOTION_DDOT = 0

CCSDS_OMM_VERS = 2.0
CREATION_DATE  = 
ORIGINATOR     = 

OBJECT_NAME    = 1998-067XU
OBJECT_ID      = 1998-067XU
CENTER_NAME    = EARTH
REF_FRAME      = TEME
TIME_SYSTEM    = UTC
MEAN_ELEMENT_THEORY = SGP/SGP4

EPOCH          = 2026-01-03T19:09:58.411872
MEAN_MOTION    = 15.54697999
ECCENTRICITY   = .00039136
INCLINATION    = 51.6308
RA_OF_ASC_NODE = 32.5923
ARG_OF_PERICENTER = 358.8486
MEAN_ANOMALY   = 1.2495

EPHEMERIS_TYPE = 0
CLASSIFICATION_TYPE = U
NORAD_CAT_ID   = 66908
ELEMENT_SET_NO = 999
REV_AT_EPOCH   = 504
BSTAR          = .14469895E-2
MEAN_MOTION_DOT = .9856E-3
MEAN_MOTION_DDOT = 0

CCSDS_OMM_VERS = 2.0
CREATION_DATE  = 
ORIGINATOR     = 

OBJECT_NAME    = SILVERSAT
OBJECT_ID      = 1998-067XV
CENTER_NAME    = EARTH
REF_FRAME      = TEME
TIME_SYSTEM    = UTC
MEAN_ELEMENT_THEORY = SGP/SGP4

EPOCH          = 2026-01-03T19:04:00.346080
MEAN_MOTION    = 15.55220356
ECCENTRICITY   = .00040513
INCLINATION    = 51.6310
RA_OF_ASC_NODE = 32.5651
ARG_OF_PERICENTER = 7.0388
MEAN_ANOMALY   = 353.0659

EPHEMERIS_TYPE = 0
CLASSIFICATION_TYPE = U
NORAD_CAT_ID   = 66909
ELEMENT_SET_NO = 999
REV_AT_EPOCH   = 504
BSTAR          = .15033198E-2
MEAN_MOTION_DOT = .104485E-2
MEAN_MOTION_DDOT = 0

CCSDS_OMM_VERS = 2.0
CREATION_DATE  = 
ORIGINATOR     = 

OBJECT_NAME    = 1998-067XW
OBJECT_ID      = 1998-067XW
CENTER_NAME    = EARTH
REF_FRAME      = TEME
TIME_SYSTEM    = UTC
MEAN_ELEMENT_THEORY = SGP/SGP4

EPOCH          = 2026-01-03T19:03:02.242944
MEAN_MOTION    = 15.54983306
ECCENTRICITY   = .00032071
INCLINATION    = 51.6304
RA_OF_ASC_NODE = 32.5594
ARG_OF_PERICENTER = 339.7349
MEAN_ANOMALY   = 20.3515

EPHEMERIS_TYPE = 0
CLASSIFICATION_TYPE = U
NORAD_CAT_ID   = 66910
ELEMENT_SET_NO = 999
REV_AT_EPOCH   = 504
BSTAR          = .14160661E-2
MEAN_MOTION_DOT = .97439E-3
MEAN_MOTION_DDOT = 0

CCSDS_OMM_VERS = 2.0
CREATION_DATE  = 
ORIGINATOR     = 

OBJECT_NAME    = 1998-067XX
OBJECT_ID      = 1998-067XX
CENTER_NAME    = EARTH
REF_FRAME      = TEME
TIME_SYSTEM    = UTC
MEAN_ELEMENT_THEORY = SGP/SGP4

EPOCH          = 2026-01-03T18:51:21.545856
MEAN_MOTION    = 15.55843233
ECCENTRICITY   = .00031019
INCLINATION    = 51.6312
RA_OF_ASC_NODE = 32.5061
ARG_OF_PERICENTER = 353.9080
MEAN_ANOMALY   = 6.1874

EPHEMERIS_TYPE = 0
CLASSIFICATION_TYPE = U
NORAD_CAT_ID   = 66911
ELEMENT_SET_NO = 999
REV_AT_EPOCH   = 503
BSTAR          = .15792576E-2
MEAN_MOTION_DOT = .112445E-2
MEAN_MOTION_DDOT = 0

CCSDS_OMM_VERS = 2.0
CREATION_DATE  = 
ORIGINATOR     = 

OBJECT_NAME    = 1998-067XY
OBJECT_ID      = 1998-067XY
CENTER_NAME    = EARTH
REF_FRAME      = TEME
TIME_SYSTEM    = UTC
MEAN_ELEMENT_THEORY = SGP/SGP4

EPOCH          = 2026-01-03T07:04:42.922272
MEAN_MOTION    = 15.53613153
ECCENTRICITY   = .0003743
INCLINATION    = 51.6316
RA_OF_ASC_NODE = 35.2295
ARG_OF_PERICENTER = 346.2968
MEAN_ANOMALY   = 13.7920

EPHEMERIS_TYPE = 0
CLASSIFICATION_TYPE = U
NORAD_CAT_ID   = 66912
ELEMENT_SET_NO = 999
REV_AT_EPOCH   = 495
BSTAR          = .13036E-2
MEAN_MOTION_DOT = .85142E-3
MEAN_MOTION_DDOT = 0

